start=new Date('2021-08-23T00:00:00.000Z').valueOf();
sats=[{"NORAD_CAT_ID":"46763","OBJECT_NAME":"STARLINK-1902","ARG_OF_PERICENTER":"40.0330","APOAPSIS":"547.735","TIME_SYSTEM":"UTC","OBJECT_TYPE":"PAYLOAD","MEAN_ELEMENT_THEORY":"SGP4","PERIOD":"95.592","RA_OF_ASC_NODE":"228.6962","MEAN_MOTION_DDOT":"0.0000000000000","REF_FRAME":"TEME","EPOCH":"2021-08-22T16:14:33.766080","SITE":"AFETR","FILE":"3101563","LAUNCH_DATE":"2020-10-24","ECCENTRICITY":"0.00007670","CLASSIFICATION_TYPE":"U","RCS_SIZE":"LARGE","ELEMENT_SET_NO":"999","MEAN_MOTION_DOT":"0.00000281","TLE_LINE2":"2 46763  53.0543 228.6962 0000767  40.0330 320.0716 15.06403246 46261","GP_ID":"183271158","OBJECT_ID":"2020-074AA","DECAY_DATE":null,"EPHEMERIS_TYPE":"0","COUNTRY_CODE":"US","REV_AT_EPOCH":"4626","MEAN_ANOMALY":"320.0716","SEMIMAJOR_AXIS":"6925.339","MEAN_MOTION":"15.06403246","TLE_LINE1":"1 46763U 20074AA  21234.67677970  .00000281  00000-0  37745-4 0  9991","CENTER_NAME":"EARTH","INCLINATION":"53.0543","PERIAPSIS":"546.672","BSTAR":"0.00003774500000"},{"NORAD_CAT_ID":"46764","OBJECT_NAME":"STARLINK-1903","ARG_OF_PERICENTER":"53.1767","APOAPSIS":"547.799","OBJECT_TYPE":"PAYLOAD","TIME_SYSTEM":"UTC","PERIOD":"95.592","MEAN_ELEMENT_THEORY":"SGP4","RA_OF_ASC_NODE":"228.4988","REF_FRAME":"TEME","MEAN_MOTION_DDOT":"0.0000000000000","SITE":"AFETR","EPOCH":"2021-08-22T17:23:32.416800","FILE":"3101563","ECCENTRICITY":"0.00008210","LAUNCH_DATE":"2020-10-24","CLASSIFICATION_TYPE":"U","RCS_SIZE":"LARGE","ELEMENT_SET_NO":"999","MEAN_MOTION_DOT":"-0.00001219","TLE_LINE2":"2 46764  53.0524 228.4988 0000821  53.1767 306.9297 15.06394469 46271","OBJECT_ID":"2020-074AB","GP_ID":"183271408","DECAY_DATE":null,"EPHEMERIS_TYPE":"0","COUNTRY_CODE":"US","MEAN_ANOMALY":"306.9297","REV_AT_EPOCH":"4627","SEMIMAJOR_AXIS":"6925.366","MEAN_MOTION":"15.06394469","TLE_LINE1":"1 46764U 20074AB  21234.72468075 -.00001219  00000-0 -62962-4 0  9995","CENTER_NAME":"EARTH","PERIAPSIS":"546.662","BSTAR":"-0.00006296200000","INCLINATION":"53.0524"},{"PERIAPSIS":"546.511","BSTAR":"0.00001687800000","INCLINATION":"53.0550","CENTER_NAME":"EARTH","TLE_LINE1":"1 46765U 20074AC  21234.71361605 -.00000030  00000-0  16878-4 0  9990","SEMIMAJOR_AXIS":"6925.319","MEAN_MOTION":"15.06409569","COUNTRY_CODE":"US","EPHEMERIS_TYPE":"0","REV_AT_EPOCH":"4626","MEAN_ANOMALY":"300.9375","DECAY_DATE":null,"GP_ID":"183272660","OBJECT_ID":"2020-074AC","RCS_SIZE":"LARGE","ELEMENT_SET_NO":"999","TLE_LINE2":"2 46765  53.0550 228.5258 0000972  59.1710 300.9375 15.06409569 46261","MEAN_MOTION_DOT":"-0.00000030","LAUNCH_DATE":"2020-10-24","ECCENTRICITY":"0.00009720","CLASSIFICATION_TYPE":"U","FILE":"3101563","MEAN_MOTION_DDOT":"0.0000000000000","REF_FRAME":"TEME","EPOCH":"2021-08-22T17:07:36.426720","SITE":"AFETR","MEAN_ELEMENT_THEORY":"SGP4","PERIOD":"95.592","RA_OF_ASC_NODE":"228.5258","APOAPSIS":"547.857","OBJECT_TYPE":"PAYLOAD","TIME_SYSTEM":"UTC","OBJECT_NAME":"STARLINK-1906","NORAD_CAT_ID":"46765","ARG_OF_PERICENTER":"59.1710"},{"TLE_LINE1":"1 46766U 20074AD  21234.70624360  .00000567  00000-0  56960-4 0  9990","SEMIMAJOR_AXIS":"6925.324","MEAN_MOTION":"15.06407874","PERIAPSIS":"546.437","BSTAR":"0.00005696000000","INCLINATION":"53.0543","CENTER_NAME":"EARTH","GP_ID":"183272911","OBJECT_ID":"2020-074AD","ELEMENT_SET_NO":"999","RCS_SIZE":"LARGE","TLE_LINE2":"2 46766  53.0543 228.5866 0001087  55.1452 304.9639 15.06407874 46271","MEAN_MOTION_DOT":"0.00000567","COUNTRY_CODE":"US","EPHEMERIS_TYPE":"0","REV_AT_EPOCH":"4627","MEAN_ANOMALY":"304.9639","DECAY_DATE":null,"FILE":"3101563","MEAN_MOTION_DDOT":"0.0000000000000","REF_FRAME":"TEME","EPOCH":"2021-08-22T16:56:59.447040","SITE":"AFETR","LAUNCH_DATE":"2020-10-24","ECCENTRICITY":"0.00010870","CLASSIFICATION_TYPE":"U","APOAPSIS":"547.942","OBJECT_TYPE":"PAYLOAD","TIME_SYSTEM":"UTC","NORAD_CAT_ID":"46766","OBJECT_NAME":"STARLINK-1916","ARG_OF_PERICENTER":"55.1452","MEAN_ELEMENT_THEORY":"SGP4","PERIOD":"95.592","RA_OF_ASC_NODE":"228.5866"},{"CLASSIFICATION_TYPE":"U","LAUNCH_DATE":"2020-10-24","ECCENTRICITY":"0.00009030","EPOCH":"2021-08-22T09:41:46.228992","SITE":"AFETR","MEAN_MOTION_DDOT":"0.0000000000000","REF_FRAME":"TEME","FILE":"3101345","RA_OF_ASC_NODE":"229.9405","MEAN_ELEMENT_THEORY":"SGP4","PERIOD":"95.592","ARG_OF_PERICENTER":"61.5977","OBJECT_NAME":"STARLINK-1917","NORAD_CAT_ID":"46767","OBJECT_TYPE":"PAYLOAD","TIME_SYSTEM":"UTC","APOAPSIS":"547.824","CENTER_NAME":"EARTH","INCLINATION":"53.0524","PERIAPSIS":"546.574","BSTAR":"0.00003647100000","MEAN_MOTION":"15.06404758","SEMIMAJOR_AXIS":"6925.334","TLE_LINE1":"1 46767U 20074AE  21234.40400728  .00000262  00000-0  36471-4 0  9995","DECAY_DATE":null,"REV_AT_EPOCH":"4622","MEAN_ANOMALY":"298.5103","EPHEMERIS_TYPE":"0","COUNTRY_CODE":"US","MEAN_MOTION_DOT":"0.00000262","TLE_LINE2":"2 46767  53.0524 229.9405 0000903  61.5977 298.5103 15.06404758 46221","ELEMENT_SET_NO":"999","RCS_SIZE":"LARGE","GP_ID":"183245519","OBJECT_ID":"2020-074AE"},{"TLE_LINE2":"2 46768  53.0544 229.6109 0000767  42.6666 317.4383 15.06409115 46239","MEAN_MOTION_DOT":"0.00000378","ELEMENT_SET_NO":"999","RCS_SIZE":"LARGE","GP_ID":"183243781","OBJECT_ID":"2020-074AF","DECAY_DATE":null,"REV_AT_EPOCH":"4623","MEAN_ANOMALY":"317.4383","COUNTRY_CODE":"US","EPHEMERIS_TYPE":"0","MEAN_MOTION":"15.06409115","SEMIMAJOR_AXIS":"6925.321","TLE_LINE1":"1 46768U 20074AF  21234.47403513  .00000378  00000-0  44239-4 0  9997","CENTER_NAME":"EARTH","PERIAPSIS":"546.654","BSTAR":"0.00004423900000","INCLINATION":"53.0544","ARG_OF_PERICENTER":"42.6666","NORAD_CAT_ID":"46768","OBJECT_NAME":"STARLINK-1918","TIME_SYSTEM":"UTC","OBJECT_TYPE":"PAYLOAD","APOAPSIS":"547.717","RA_OF_ASC_NODE":"229.6109","MEAN_ELEMENT_THEORY":"SGP4","PERIOD":"95.592","EPOCH":"2021-08-22T11:22:36.635232","SITE":"AFETR","REF_FRAME":"TEME","MEAN_MOTION_DDOT":"0.0000000000000","FILE":"3101345","CLASSIFICATION_TYPE":"U","LAUNCH_DATE":"2020-10-24","ECCENTRICITY":"0.00007670"},{"RA_OF_ASC_NODE":"228.6522","MEAN_ELEMENT_THEORY":"SGP4","PERIOD":"95.592","OBJECT_TYPE":"PAYLOAD","TIME_SYSTEM":"UTC","APOAPSIS":"547.823","ARG_OF_PERICENTER":"53.8597","OBJECT_NAME":"STARLINK-1919","NORAD_CAT_ID":"46769","CLASSIFICATION_TYPE":"U","LAUNCH_DATE":"2020-10-24","ECCENTRICITY":"0.00008840","FILE":"3101563","EPOCH":"2021-08-22T16:35:48.101280","SITE":"AFETR","REF_FRAME":"TEME","MEAN_MOTION_DDOT":"0.0000000000000","REV_AT_EPOCH":"4626","MEAN_ANOMALY":"306.2474","EPHEMERIS_TYPE":"0","COUNTRY_CODE":"US","DECAY_DATE":null,"GP_ID":"183272160","OBJECT_ID":"2020-074AG","TLE_LINE2":"2 46769  53.0551 228.6522 0000884  53.8597 306.2474 15.06400776 46267","MEAN_MOTION_DOT":"0.00000536","ELEMENT_SET_NO":"999","RCS_SIZE":"LARGE","PERIAPSIS":"546.599","BSTAR":"0.00005488600000","INCLINATION":"53.0551","CENTER_NAME":"EARTH","TLE_LINE1":"1 46769U 20074AG  21234.69152895  .00000536  00000-0  54886-4 0  9991","MEAN_MOTION":"15.06400776","SEMIMAJOR_AXIS":"6925.346"},{"MEAN_ELEMENT_THEORY":"SGP4","PERIOD":"95.593","RA_OF_ASC_NODE":"228.6307","OBJECT_NAME":"STARLINK-1932","NORAD_CAT_ID":"46770","ARG_OF_PERICENTER":"44.8479","APOAPSIS":"547.752","TIME_SYSTEM":"UTC","OBJECT_TYPE":"PAYLOAD","LAUNCH_DATE":"2020-10-24","ECCENTRICITY":"0.00007180","CLASSIFICATION_TYPE":"U","MEAN_MOTION_DDOT":"0.0000000000000","REF_FRAME":"TEME","EPOCH":"2021-08-22T16:39:43.783200","SITE":"AFETR","FILE":"3101563","DECAY_DATE":null,"EPHEMERIS_TYPE":"0","COUNTRY_CODE":"US","REV_AT_EPOCH":"4626","MEAN_ANOMALY":"315.2568","ELEMENT_SET_NO":"999","RCS_SIZE":"LARGE","TLE_LINE2":"2 46770  53.0535 228.6307 0000718  44.8479 315.2568 15.06386612 46263","MEAN_MOTION_DOT":"0.00000433","GP_ID":"183272411","OBJECT_ID":"2020-074AH","CENTER_NAME":"EARTH","INCLINATION":"53.0535","PERIAPSIS":"546.757","BSTAR":"0.00004795700000","SEMIMAJOR_AXIS":"6925.390","MEAN_MOTION":"15.06386612","TLE_LINE1":"1 46770U 20074AH  21234.69425675  .00000433  00000-0  47957-4 0  9999"},{"FILE":"3101565","SITE":"AFETR","EPOCH":"2021-08-23T01:28:03.833472","MEAN_MOTION_DDOT":"0.0000117770000","REF_FRAME":"TEME","CLASSIFICATION_TYPE":"U","ECCENTRICITY":"0.00093750","LAUNCH_DATE":"2020-10-24","TIME_SYSTEM":"UTC","OBJECT_TYPE":"PAYLOAD","APOAPSIS":"227.806","ARG_OF_PERICENTER":"244.4004","OBJECT_NAME":"STARLINK-1935","NORAD_CAT_ID":"46771","RA_OF_ASC_NODE":"185.9861","PERIOD":"88.931","MEAN_ELEMENT_THEORY":"SGP4","TLE_LINE1":"1 46771U 20074AJ  21235.06115548  .03622355  11777-4  19176-2 0  9990","MEAN_MOTION":"16.19239848","SEMIMAJOR_AXIS":"6599.754","PERIAPSIS":"215.431","BSTAR":"0.00191760000000","INCLINATION":"53.0404","CENTER_NAME":"EARTH","OBJECT_ID":"2020-074AJ","GP_ID":"183273816","MEAN_MOTION_DOT":"0.03622355","TLE_LINE2":"2 46771  53.0404 185.9861 0009375 244.4004 115.6705 16.19239848 46896","ELEMENT_SET_NO":"999","RCS_SIZE":"LARGE","MEAN_ANOMALY":"115.6705","REV_AT_EPOCH":"4689","EPHEMERIS_TYPE":"0","COUNTRY_CODE":"US","DECAY_DATE":null},{"RA_OF_ASC_NODE":"228.7013","MEAN_ELEMENT_THEORY":"SGP4","PERIOD":"95.593","ARG_OF_PERICENTER":"52.2681","OBJECT_NAME":"STARLINK-1936","NORAD_CAT_ID":"46772","OBJECT_TYPE":"PAYLOAD","TIME_SYSTEM":"UTC","APOAPSIS":"547.920","CLASSIFICATION_TYPE":"U","LAUNCH_DATE":"2020-10-24","ECCENTRICITY":"0.00009940","EPOCH":"2021-08-22T16:19:53.740704","SITE":"AFETR","MEAN_MOTION_DDOT":"0.0000000000000","REF_FRAME":"TEME","FILE":"3101563","DECAY_DATE":null,"REV_AT_EPOCH":"4626","MEAN_ANOMALY":"307.8398","COUNTRY_CODE":"US","EPHEMERIS_TYPE":"0","TLE_LINE2":"2 46772  53.0534 228.7013 0000994  52.2681 307.8398 15.06394056 46262","MEAN_MOTION_DOT":"0.00000520","RCS_SIZE":"LARGE","ELEMENT_SET_NO":"999","GP_ID":"183271409","OBJECT_ID":"2020-074AK","CENTER_NAME":"EARTH","INCLINATION":"53.0534","PERIAPSIS":"546.543","BSTAR":"0.00005382800000","MEAN_MOTION":"15.06394056","SEMIMAJOR_AXIS":"6925.367","TLE_LINE1":"1 46772U 20074AK  21234.68048311  .00000520  00000-0  53828-4 0  9999"}];
